$$SOE
2460147.500000000, A.D. 2023-Jul-22 00:00:00.0000, -8.385420184833945E+09, -2.815090663214334E+09, 6.050465558422985E+08,
2460154.500000000, A.D. 2023-Jul-29 00:00:00.0000, -8.384336870537020E+09, -2.816937602426090E+09, 6.048541405129063E+08,
2460161.500000000, A.D. 2023-Aug-05 00:00:00.0000, -8.383253055775065E+09, -2.818784370712720E+09, 6.046616853095993E+08,
2460168.500000000, A.D. 2023-Aug-12 00:00:00.0000, -8.382168742832249E+09, -2.820630969879984E+09, 6.044691903889787E+08,
2460175.500000000, A.D. 2023-Aug-19 00:00:00.0000, -8.381083933687937E+09, -2.822477402222254E+09, 6.042766558774540E+08,
2460182.500000000, A.D. 2023-Aug-26 00:00:00.0000, -8.379998630015949E+09, -2.824323670432515E+09, 6.040840818773235E+08,
2460189.500000000, A.D. 2023-Sep-02 00:00:00.0000, -8.378912833206812E+09, -2.826169777583676E+09, 6.038914684681900E+08,
2460196.500000000, A.D. 2023-Sep-09 00:00:00.0000, -8.377826544376390E+09, -2.828015727222427E+09, 6.036988156970211E+08,
2460203.500000000, A.D. 2023-Sep-16 00:00:00.0000, -8.376739764192461E+09, -2.829861523633627E+09, 6.035061235367147E+08,
2460210.500000000, A.D. 2023-Sep-23 00:00:00.0000, -8.375652492102835E+09, -2.831707171988447E+09, 6.033133917984860E+08,
2460217.500000000, A.D. 2023-Sep-30 00:00:00.0000, -8.374564725304579E+09, -2.833552677185548E+09, 6.031206201266232E+08,
2460224.500000000, A.D. 2023-Oct-07 00:00:00.0000, -8.373476459808084E+09, -2.835398041928130E+09, 6.029278082472759E+08,
2460231.500000000, A.D. 2023-Oct-14 00:00:00.0000, -8.372387692556076E+09, -2.837243267349998E+09, 6.027349561052985E+08,
2460238.500000000, A.D. 2023-Oct-21 00:00:00.0000, -8.371298421368984E+09, -2.839088354587935E+09, 6.025420637241795E+08,
2460245.500000000, A.D. 2023-Oct-28 00:00:00.0000, -8.370208644140986E+09, -2.840933305040276E+09, 6.023491311046327E+08,
2460252.500000000, A.D. 2023-Nov-04 00:00:00.0000, -8.369118358536807E+09, -2.842778120082042E+09, 6.021561582138081E+08,
2460259.500000000, A.D. 2023-Nov-11 00:00:00.0000, -8.368027562011668E+09, -2.844622800836537E+09, 6.019631450000675E+08,
2460266.500000000, A.D. 2023-Nov-18 00:00:00.0000, -8.366936251934911E+09, -2.846467348067712E+09, 6.017700914081953E+08,
2460273.500000000, A.D. 2023-Nov-25 00:00:00.0000, -8.365844425744455E+09, -2.848311762170714E+09, 6.015769973904313E+08,
2460280.500000000, A.D. 2023-Dec-02 00:00:00.0000, -8.364752081103917E+09, -2.850156043271849E+09, 6.013838629100020E+08,
2460287.500000000, A.D. 2023-Dec-09 00:00:00.0000, -8.363659215984553E+09, -2.852000191496845E+09, 6.011906879253166E+08,
2460294.500000000, A.D. 2023-Dec-16 00:00:00.0000, -8.362565828384484E+09, -2.853844207394865E+09, 6.009974723295107E+08,
2460301.500000000, A.D. 2023-Dec-23 00:00:00.0000, -8.361471915336761E+09, -2.855688091830813E+09, 6.008042158695185E+08,
2460308.500000000, A.D. 2023-Dec-30 00:00:00.0000, -8.360377472546459E+09, -2.857531844296692E+09, 6.006109182532334E+08,
2460315.500000000, A.D. 2024-Jan-06 00:00:00.0000, -8.359282496429303E+09, -2.859375462002710E+09, 6.004175794142357E+08,
2460322.500000000, A.D. 2024-Jan-13 00:00:00.0000, -8.358186985379021E+09, -2.861218941555065E+09, 6.002241994951901E+08,
2460329.500000000, A.D. 2024-Jan-20 00:00:00.0000, -8.357090939039910E+09, -2.863062280135811E+09, 6.000307786895070E+08,
2460336.500000000, A.D. 2024-Jan-27 00:00:00.0000, -8.355994357613354E+09, -2.864905475532603E+09, 5.998373171803976E+08,
2460343.500000000, A.D. 2024-Feb-03 00:00:00.0000, -8.354897241626622E+09, -2.866748525966966E+09, 5.996438151388674E+08,
2460350.500000000, A.D. 2024-Feb-10 00:00:00.0000, -8.353799591886641E+09, -2.868591430012165E+09, 5.994502727311897E+08,
2460357.500000000, A.D. 2024-Feb-17 00:00:00.0000, -8.352701409479990E+09, -2.870434186592794E+09, 5.992566901236135E+08,
2460364.500000000, A.D. 2024-Feb-24 00:00:00.0000, -8.351602695783230E+09, -2.872276795051259E+09, 5.990630674820737E+08,
2460371.500000000, A.D. 2024-Mar-02 00:00:00.0000, -8.350503452454170E+09, -2.874119255313694E+09, 5.988694049614472E+08,
2460378.500000000, A.D. 2024-Mar-09 00:00:00.0000, -8.349403681265311E+09, -2.875961568218161E+09, 5.986757026663997E+08,
2460385.500000000, A.D. 2024-Mar-16 00:00:00.0000, -8.348303383384109E+09, -2.877803735807867E+09, 5.984819605636355E+08,
2460392.500000000, A.D. 2024-Mar-23 00:00:00.0000, -8.347202558203695E+09, -2.879645760480360E+09, 5.982881784456494E+08,
2460399.500000000, A.D. 2024-Mar-30 00:00:00.0000, -8.346101203965143E+09, -2.881487643019489E+09, 5.980943561493288E+08,
2460406.500000000, A.D. 2024-Apr-06 00:00:00.0000, -8.344999319915278E+09, -2.883329382877748E+09, 5.979004937307130E+08,
2460413.500000000, A.D. 2024-Apr-13 00:00:00.0000, -8.343896906448904E+09, -2.885170979872572E+09, 5.977065913385431E+08,
2460420.500000000, A.D. 2024-Apr-20 00:00:00.0000, -8.342793964187567E+09, -2.887012434619932E+09, 5.975126490926912E+08,
2460427.500000000, A.D. 2024-Apr-27 00:00:00.0000, -8.341690493511905E+09, -2.888853748266621E+09, 5.973186670607762E+08,
2460434.500000000, A.D. 2024-May-04 00:00:00.0000, -8.340586494459644E+09, -2.890694922224511E+09, 5.971246452674797E+08,
2460441.500000000, A.D. 2024-May-11 00:00:00.0000, -8.339481966750918E+09, -2.892535958008420E+09, 5.969305837064852E+08,
2460448.500000000, A.D. 2024-May-18 00:00:00.0000, -8.338376909858916E+09, -2.894376857155694E+09, 5.967364823494254E+08,
2460455.500000000, A.D. 2024-May-25 00:00:00.0000, -8.337271323101133E+09, -2.896217621234300E+09, 5.965423411491673E+08,
2460462.500000000, A.D. 2024-Jun-01 00:00:00.0000, -8.336165205691406E+09, -2.898058251996540E+09, 5.963481600274734E+08,
2460469.500000000, A.D. 2024-Jun-08 00:00:00.0000, -8.335058556506327E+09, -2.899898751701029E+09, 5.961539388228061E+08,
2460476.500000000, A.D. 2024-Jun-15 00:00:00.0000, -8.333951373166553E+09, -2.901739123057570E+09, 5.959596772064486E+08,
2460483.500000000, A.D. 2024-Jun-22 00:00:00.0000, -8.332843651438219E+09, -2.903579367619550E+09, 5.957653747554417E+08,
2460490.500000000, A.D. 2024-Jun-29 00:00:00.0000, -8.331735387076077E+09, -2.905419484444474E+09, 5.955710312283992E+08,
2460497.500000000, A.D. 2024-Jul-06 00:00:00.0000, -8.330626577463348E+09, -2.907259471493587E+09, 5.953766465998721E+08,
2460504.500000000, A.D. 2024-Jul-13 00:00:00.0000, -8.329517221099076E+09, -2.909099326946415E+09, 5.951822209054148E+08,
2460511.500000000, A.D. 2024-Jul-20 00:00:00.0000, -8.328407316918590E+09, -2.910939049281468E+09, 5.949877541734581E+08,
2460518.500000000, A.D. 2024-Jul-27 00:00:00.0000, -8.327296864103096E+09, -2.912778637082506E+09, 5.947932464257482E+08,
2460525.500000000, A.D. 2024-Aug-03 00:00:00.0000, -8.326185862105470E+09, -2.914618088945253E+09, 5.945986976906190E+08,
2460532.500000000, A.D. 2024-Aug-10 00:00:00.0000, -8.325074310726464E+09, -2.916457403488796E+09, 5.944041080133747E+08,
2460539.500000000, A.D. 2024-Aug-17 00:00:00.0000, -8.323962210193998E+09, -2.918296579449655E+09, 5.942094774610335E+08,
2460546.500000000, A.D. 2024-Aug-24 00:00:00.0000, -8.322849561217708E+09, -2.920135615880438E+09, 5.940148061168133E+08,
2460553.500000000, A.D. 2024-Aug-31 00:00:00.0000, -8.321736364903138E+09, -2.921974512514184E+09, 5.938200940484823E+08,
2460560.500000000, A.D. 2024-Sep-07 00:00:00.0000, -8.320622622160042E+09, -2.923813270167651E+09, 5.936253412271034E+08,
2460567.500000000, A.D. 2024-Sep-14 00:00:00.0000, -8.319508332519596E+09, -2.925651890187409E+09, 5.934305474695072E+08,
2460574.500000000, A.D. 2024-Sep-21 00:00:00.0000, -8.318393494389314E+09, -2.927490372525892E+09, 5.932357126240630E+08,
2460581.500000000, A.D. 2024-Sep-28 00:00:00.0000, -8.317278107233172E+09, -2.929328715674892E+09, 5.930408367805293E+08,
2460588.500000000, A.D. 2024-Oct-05 00:00:00.0000, -8.316162172007264E+09, -2.931166918454694E+09, 5.928459201673709E+08,
2460595.500000000, A.D. 2024-Oct-12 00:00:00.0000, -8.315045690211561E+09, -2.933004980678613E+09, 5.926509630130754E+08,
2460602.500000000, A.D. 2024-Oct-19 00:00:00.0000, -8.313928663308749E+09, -2.934842902963607E+09, 5.924559655098735E+08,
2460609.500000000, A.D. 2024-Oct-26 00:00:00.0000, -8.312811092542442E+09, -2.936680686488173E+09, 5.922609278173287E+08,
2460616.500000000, A.D. 2024-Nov-02 00:00:00.0000, -8.311692978897362E+09, -2.938518332845668E+09, 5.920658500700636E+08,
2460623.500000000, A.D. 2024-Nov-09 00:00:00.0000, -8.310574323104743E+09, -2.940355843972091E+09, 5.918707323824974E+08,
2460630.500000000, A.D. 2024-Nov-16 00:00:00.0000, -8.309455125666893E+09, -2.942193222147746E+09, 5.916755748482784E+08,
2460637.500000000, A.D. 2024-Nov-23 00:00:00.0000, -8.308335386853851E+09, -2.944030470122415E+09, 5.914803775260937E+08,
2460644.500000000, A.D. 2024-Nov-30 00:00:00.0000, -8.307215106463694E+09, -2.945867591406437E+09, 5.912851403893573E+08,
2460651.500000000, A.D. 2024-Dec-07 00:00:00.0000, -8.306094282926955E+09, -2.947704590306828E+09, 5.910898632357664E+08,
2460658.500000000, A.D. 2024-Dec-14 00:00:00.0000, -8.304972912443693E+09, -2.949541470484318E+09, 5.908945457200502E+08,
2460665.500000000, A.D. 2024-Dec-21 00:00:00.0000, -8.303850990471668E+09, -2.951378233271908E+09, 5.906991876213070E+08,
2460672.500000000, A.D. 2024-Dec-28 00:00:00.0000, -8.302728513593161E+09, -2.953214878722220E+09, 5.905037889217113E+08,
2460679.500000000, A.D. 2025-Jan-04 00:00:00.0000, -8.301605479163078E+09, -2.955051407007375E+09, 5.903083496527389E+08,
2460686.500000000, A.D. 2025-Jan-11 00:00:00.0000, -8.300481884559574E+09, -2.956887818511522E+09, 5.901128698118511E+08,
2460693.500000000, A.D. 2025-Jan-18 00:00:00.0000, -8.299357726953960E+09, -2.958724113534803E+09, 5.899173493589002E+08,
2460700.500000000, A.D. 2025-Jan-25 00:00:00.0000, -8.298233003356310E+09, -2.960560292083273E+09, 5.897217882314028E+08,
2460707.500000000, A.D. 2025-Feb-01 00:00:00.0000, -8.297107710747108E+09, -2.962396353774911E+09, 5.895261863591083E+08,
$$EOE